DMSP 5D-3 F16 (USA 172) 
1 28054U 03048A   26053.31366897  .00000113  00000+0  82513-4 0  9990
2 28054  99.0007  76.3241 0008184 110.8490  82.3717 14.14455543153242
METEOSAT-9 (MSG-2)      
1 28912U 05049B   26053.09905834  .00000129  00000+0  00000+0 0  9994
2 28912   9.0998  55.2809 0002130 210.8999 327.1152  1.00272067  5845
DMSP 5D-3 F17 (USA 191) 
1 29522U 06050A   26053.26259248  .00000159  00000+0  10450-3 0  9992
2 29522  98.7412  62.1720 0010595  30.1335 330.0446 14.14956222996163
FENGYUN 3A              
1 32958U 08026A   26053.08758223  .00000100  00000+0  67727-4 0  9997
2 32958  98.6779 356.1430 0009814  98.2675 261.9614 14.19540932919079
GOES 14                 
1 35491U 09033A   26053.21398618  .00000138  00000+0  00000+0 0  9991
2 35491   1.3908  84.5803 0001859 287.0375  64.8650  1.00119084  5433
DMSP 5D-3 F18 (USA 210) 
1 35951U 09057A   26053.22483056  .00000273  00000+0  16460-3 0  9991
2 35951  98.8938  34.3088 0010330 213.6030 146.4489 14.14824840843331
EWS-G2 (GOES 15)        
1 36411U 10008A   26053.20650237  .00000013  00000+0  00000+0 0  9997
2 36411   0.9828  85.3811 0001382  34.6052 169.2204  1.00363497 58486
COMS 1                  
1 36744U 10032A   26052.86795931 -.00000339  00000+0  00000+0 0  9997
2 36744   4.5080  77.0331 0000997 250.7555 264.6174  1.00271309 49936
FENGYUN 3B              
1 37214U 10059A   26053.53434800  .00000152  00000+0  10185-3 0  9990
2 37214  98.9794  98.9799 0022605 149.5500 312.4027 14.14814155791218
SUOMI NPP               
1 37849U 11061A   26053.23655585  .00000106  00000+0  71274-4 0  9996
2 37849  98.7851 354.9638 0000852 345.3136  14.8015 14.19538704742137
METEOSAT-10 (MSG-3)     
1 38552U 12035B   26053.23586484 -.00000001  00000+0  00000+0 0  9990
2 38552   4.3979  61.5019 0002303 285.7385 249.9280  1.00274964 49702
METOP-B                 
1 38771U 12049A   26053.24059277  .00000101  00000+0  65976-4 0  9992
2 38771  98.6677 106.9492 0001597 342.2670  17.8451 14.21439075696933
INSAT-3D                
1 39216U 13038B   26053.26988645 -.00000335  00000+0  00000+0 0  9990
2 39216   1.6277  84.0690 0002213 227.2257  67.5074  1.00273041 45925
FENGYUN 3C              
1 39260U 13052A   26053.55139735  .00000124  00000+0  84071-4 0  9995
2 39260  98.4866  32.7628 0014661 358.0628   2.0488 14.15723197642342
METEOR-M 2              
1 40069U 14037A   26053.54912609  .00000405  00000+0  20444-3 0  9991
2 40069  98.5005  33.4203 0006270  20.3713 339.7714 14.21422696603037
HIMAWARI-8              
1 40267U 14060A   26053.27213979 -.00000271  00000+0  00000+0 0  9995
2 40267   0.0084 179.8034 0001074 106.1130 104.8758  1.00272634 41608
FENGYUN 2G              
1 40367U 14090A   26053.54921444 -.00000299  00000+0  00000+0 0  9992
2 40367   5.3465  74.2145 0002143 149.7387 225.7151  1.00278621 40854
METEOSAT-11 (MSG-4)     
1 40732U 15034A   26053.23030693  .00000068  00000+0  00000+0 0  9993
2 40732   2.9123  71.7454 0001158 260.2229 272.6399  1.00273094  6067
ELEKTRO-L 2             
1 41105U 15074A   26053.38394032 -.00000114  00000+0  00000+0 0  9991
2 41105   6.4030  71.9420 0003389 232.3070 331.7707  1.00271156 37358
INSAT-3DR               
1 41752U 16054A   26053.15441892 -.00000072  00000+0  00000+0 0  9993
2 41752   0.0938  91.6575 0013612 187.8286   2.1317  1.00271062 34669
HIMAWARI-9              
1 41836U 16064A   26053.27213979 -.00000271  00000+0  00000+0 0  9994
2 41836   0.0127 150.9408 0001181 200.2275  39.7236  1.00269840 34052
GOES 16                 
1 41866U 16071A   26053.22351955 -.00000086  00000+0  00000+0 0  9991
2 41866   0.1540  91.9697 0002758 206.4553 189.4658  1.00271461 33958
FENGYUN 4A              
1 41882U 16077A   26053.48265412 -.00000353  00000+0  00000+0 0  9992
2 41882   2.0281  81.5716 0006385 131.9342 236.3307  1.00266913 33784
CYGFM05                 
1 41884U 16078A   26053.06688705  .00020238  00000+0  33379-3 0  9995
2 41884  34.9582 299.9734 0005638 140.5733 219.5401 15.51315179510833
CYGFM04                 
1 41885U 16078B   26053.02053197  .00022658  00000+0  33568-3 0  9991
2 41885  34.9324 272.8866 0005073 176.5498 183.5261 15.54263202511022
CYGFM02                 
1 41886U 16078C   26053.00669322  .00026611  00000+0  36590-3 0  9994
2 41886  34.9411 270.1903 0006090 176.0861 183.9912 15.56254521511160
CYGFM01                 
1 41887U 16078D   26053.09839651  .00021010  00000+0  34136-3 0  9990
2 41887  34.9412 301.6394 0005369 128.7526 231.3677 15.51729835510789
CYGFM08                 
1 41888U 16078E   26053.02900377  .00022333  00000+0  34417-3 0  9999
2 41888  34.9438 284.1729 0006951 159.2680 200.8326 15.53172858511011
CYGFM07                 
1 41890U 16078G   26053.00244730  .00022259  00000+0  33491-3 0  9992
2 41890  34.9452 272.8974 0005659 183.1970 176.8718 15.53840477511036
CYGFM03                 
1 41891U 16078H   26053.03721664  .00021996  00000+0  33255-3 0  9997
2 41891  34.9406 274.6414 0004812 164.6331 195.4538 15.53714813511019
FENGYUN 3D              
1 43010U 17072A   26053.55426008  .00000118  00000+0  77529-4 0  9994
2 43010  99.0007  25.9825 0002224  40.9163 319.2179 14.19709476428722
NOAA 20 (JPSS-1)        
1 43013U 17073A   26053.25114409  .00000090  00000+0  63392-4 0  9996
2 43013  98.7674 353.7936 0000458 154.9525 205.1673 14.19531699428161
GOES 17                 
1 43226U 18022A   26053.22870362 -.00000178  00000+0  00000+0 0  9991
2 43226   0.6401  87.8043 0002479 211.7601 205.4189  1.00271268 29276
FENGYUN 2H              
1 43491U 18050A   26053.54514109 -.00000123  00000+0  00000+0 0  9995
2 43491   2.7329  80.4945 0002021 169.2225 177.9970  1.00273243 28280
METOP-C                 
1 43689U 18087A   26053.19515364  .00000100  00000+0  65586-4 0  9998
2 43689  98.6800 114.8284 0002027 121.9485 238.1890 14.21491402378492
GEO-KOMPSAT-2A          
1 43823U 18100A   26053.26962645 -.00000339  00000+0  00000+0 0  9990
2 43823   0.0168  32.8114 0000933   2.3856 342.2787  1.00272541 26479
METEOR-M2 2             
1 44387U 19038A   26053.53126777  .00000026  00000+0  31247-4 0  9999
2 44387  98.9068  39.1764 0001653  30.2384 329.8889 14.24326630344978
ARKTIKA-M 1             
1 47719U 21016A   26051.85398976 -.00000104  00000+0  00000+0 0  9991
2 47719  63.1990  74.2752 7238239 269.4067  15.2558  2.00622028 36459
FENGYUN 3E              
1 49008U 21062A   26053.55154100  .00000380  00000+0  19976-3 0  9994
2 49008  98.7507  58.2355 0002645  68.8969 291.2489 14.19892902240310
GOES 18                 
1 51850U 22021A   26053.21710620  .00000102  00000+0  00000+0 0  9992
2 51850   0.0123  79.2781 0000498 300.2738  73.7148  1.00268415  5445
NOAA 21 (JPSS-2)        
1 54234U 22150A   26053.21553679  .00000086  00000+0  61834-4 0  9991
2 54234  98.7536 353.6605 0002175 134.8905 225.2447 14.19547591170236
METEOSAT-12 (MTG-I1)    
1 54743U 22170C   26053.23586484 -.00000003  00000+0  00000+0 0  9993
2 54743   0.7311  27.5273 0002002 273.7576 295.4117  1.00272596 11827
TIANMU-1 03             
1 55973U 23039A   26053.51840360  .00018485  00000+0  41294-3 0  9997
2 55973  97.5162 223.3327 0003728 145.2079 214.9413 15.43571078163129
TIANMU-1 04             
1 55974U 23039B   26053.48101941  .00019110  00000+0  42115-3 0  9998
2 55974  97.5094 222.4589 0004420 142.0810 218.0750 15.43965432163122
TIANMU-1 05             
1 55975U 23039C   26053.49440877  .00018420  00000+0  41233-3 0  9997
2 55975  97.5142 222.9650 0003277 163.8516 196.2837 15.43513365163109
TIANMU-1 06             
1 55976U 23039D   26053.48112444  .00019286  00000+0  42458-3 0  9994
2 55976  97.5152 223.4779 0003714 159.2924 200.8474 15.43998347163125
FENGYUN 3G              
1 56232U 23055A   26053.52330345  .00034112  00000+0  53010-3 0  9996
2 56232  49.9923 217.2960 0010526 306.0859  53.9133 15.53514119162185
METEOR-M2 3             
1 57166U 23091A   26053.50030972 -.00000007  00000+0  15804-4 0  9991
2 57166  98.6248 110.7459 0004802 134.1554 226.0020 14.24035930138193
TIANMU-1 07             
1 57399U 23101A   26053.46878534  .00007612  00000+0  27111-3 0  9991
2 57399  97.2754 106.7529 0004464 165.7709 194.3658 15.29204858144113
TIANMU-1 08             
1 57400U 23101B   26053.24240616  .00006053  00000+0  21621-3 0  9992
2 57400  97.2744 106.3118 0006013 168.1136 192.0248 15.29190156144078
TIANMU-1 09             
1 57401U 23101C   26053.48585792  .00008298  00000+0  29390-3 0  9990
2 57401  97.2701 106.0341 0005390 168.0091 192.1279 15.29354457144119
TIANMU-1 10             
1 57402U 23101D   26053.45493788  .00007747  00000+0  27456-3 0  9990
2 57402  97.2780 106.9296 0006985 172.7552 187.3791 15.29348517144104
FENGYUN 3F              
1 57490U 23111A   26053.46725267  .00000053  00000+0  45503-4 0  9996
2 57490  98.6961 125.5639 0001454  88.0948 272.0395 14.19915522132584
ARKTIKA-M 2             
1 58584U 23198A   26050.11964412  .00000197  00000+0  00000+0 0  9999
2 58584  63.2214 167.4340 6874647 267.8298  18.8537  2.00613262 15953
TIANMU-1 11             
1 58645U 23205A   26053.19727973  .00005762  00000+0  22899-3 0  9993
2 58645  97.3562  76.6012 0010598  57.9679 302.2588 15.25641927119988
TIANMU-1 12             
1 58646U 23205B   26053.22891613  .00005874  00000+0  23410-3 0  9995
2 58646  97.3551  76.4154 0008533  45.2071 314.9860 15.25560840119970
TIANMU-1 13             
1 58647U 23205C   26053.19472544  .00006117  00000+0  24332-3 0  9995
2 58647  97.3578  76.6138 0008267  28.7233 331.4459 15.25608912119964
TIANMU-1 14             
1 58648U 23205D   26053.17906295  .00005712  00000+0  22752-3 0  9993
2 58648  97.3512  75.8813 0009166  31.5019 328.6767 15.25586214119967
TIANMU-1 19             
1 58660U 23208A   26053.22610959  .00008741  00000+0  30851-3 0  9999
2 58660  97.4378 169.2022 0005084  17.8131 342.3286 15.29464017119744
TIANMU-1 20             
1 58661U 23208B   26053.15706194  .00008727  00000+0  29686-3 0  9997
2 58661  97.4318 169.6514 0007451  22.7631 337.3939 15.30653496119819
TIANMU-1 21             
1 58662U 23208C   26053.24092426  .00009987  00000+0  31937-3 0  9995
2 58662  97.4370 171.9520 0007154  17.2078 342.9405 15.32607460119941
TIANMU-1 22             
1 58663U 23208D   26053.24001234  .00008252  00000+0  29464-3 0  9999
2 58663  97.4373 169.2370 0004341  44.5119 315.6469 15.29106980119755
TIANMU-1 15             
1 58700U 24004A   26053.50473846  .00006961  00000+0  27678-3 0  9997
2 58700  97.4663 239.7662 0007870  40.8762 319.3065 15.25581894118286
TIANMU-1 16             
1 58701U 24004B   26053.55413536  .00007300  00000+0  28991-3 0  9990
2 58701  97.4604 239.1496 0006335  45.4117 314.7637 15.25614500118297
TIANMU-1 17             
1 58702U 24004C   26053.53682804  .00007621  00000+0  30221-3 0  9990
2 58702  97.4636 239.5789 0005556  47.6806 312.4902 15.25651350118288
TIANMU-1 18             
1 58703U 24004D   26053.52150891  .00007695  00000+0  30556-3 0  9998
2 58703  97.4654 239.7725 0004959  48.2435 311.9226 15.25606408118289
INSAT-3DS               
1 58990U 24033A   26053.11787243 -.00000152  00000+0  00000+0 0  9999
2 58990   0.0799 266.2153 0002093  77.7895 292.5275  1.00273730 45914
METEOR-M2 4             
1 59051U 24039A   26053.52545229  .00000033  00000+0  34480-4 0  9996
2 59051  98.6876  14.3495 0007747 134.9726 225.2081 14.22414463102968
GOES 19                 
1 60133U 24119A   26053.22932625 -.00000244  00000+0  00000+0 0  9996
2 60133   0.0482 298.7147 0001033  67.6833 153.0802  1.00269894  5819
FENGYUN 3H              
1 65815U 25219A   26053.25223288  .00000089  00000+0  62411-4 0  9996
2 65815  98.6666 356.3208 0001544  72.5671 287.5674 14.19928084 21072
